GLOBALSTAR M001         
1 25162U 98008A   25248.58510260 -.00000056  00000+0  31302-3 0  9992
2 25162  52.0022  99.2182 0002291  67.0563 310.4813 12.38216974253677
GLOBALSTAR M004         
1 25163U 98008B   25248.55616330 -.00000076  00000+0  15312-3 0  9990
2 25163  51.9995 168.9648 0003500 101.5308  68.9321 12.63401734271847
GLOBALSTAR M002         
1 25164U 98008C   25248.54280321 -.00000075  00000+0  33914-4 0  9995
2 25164  52.0034  38.7238 0000674 316.2613  43.8154 11.61512060193409
GLOBALSTAR M003         
1 25165U 98008D   25248.54268258 -.00000163  00000+0 -78102-3 0  9997
2 25165  51.9970 305.9744 0008536  94.5473  50.6575 12.12062963242961
GLOBALSTAR M014         
1 25306U 98023A   25248.59080634 -.00000055  00000+0  41605-3 0  9993
2 25306  51.9862 320.1426 0001361 138.5265   9.0785 11.65481735200549
GLOBALSTAR M006         
1 25307U 98023B   25248.57072064 -.00000073  00000+0  58519-4 0  9993
2 25307  51.9971  15.6657 0002488 242.0532 200.8824 11.58175329226142
GLOBALSTAR M015         
1 25308U 98023C   25248.38216704 -.00000108  00000+0 -78937-3 0  9999
2 25308  51.9811 118.2829 0011828 217.2890 313.5272 11.48859529203296
GLOBALSTAR M008         
1 25309U 98023D   25248.52049780 -.00000068  00000+0  21959-3 0  9990
2 25309  51.9993 325.1499 0002339 354.5558  19.3500 12.36071511247785
